     2.100          NAVIGATION                              RINEX VERSION / TYPE
fic2rin                                 04/22/2015 00:30:39 PGM / RUN BY / DATE
                                                            END OF HEADER
20 15  4 21 20  0  0.0  .312529038638D-03  .375166564481D-11  .000000000000D+00
     .870000000000D+02 -.355625000000D+02  .543308345259D-08  .561376122677D+00
    -.180490314960D-05  .568307901267D-02  .749342143536D-05  .515578894234D+04
     .244800000000D+06 -.949949026108D-07 -.331384690085D+00 -.428408384323D-07
     .926590626573D+00  .218000000000D+03  .122004241555D+01 -.854392731744D-08
    -.449304429619D-09  .100000000000D+01  .184100000000D+04  .000000000000D+00
     .240000000000D+01  .000000000000D+00 -.838190317154D-08  .870000000000D+02
     .237606000000D+06  .400000000000D+01
21 15  4 21 20  0  0.0 -.438822899014D-03 -.375166564481D-11  .000000000000D+00
     .260000000000D+02  .207812500000D+02  .528164857329D-08  .283370958592D+01
     .884756445885D-06  .225229918724D-01  .514090061188D-05  .515357311630D+04
     .244800000000D+06  .171363353729D-06 -.132257714852D+01 -.182539224625D-06
     .933360670584D+00  .261625000000D+03 -.191812757588D+01 -.808997983728D-08
     .229652423088D-09  .100000000000D+01  .184100000000D+04  .000000000000D+00
     .240000000000D+01  .000000000000D+00 -.116415321827D-07  .260000000000D+02
     .237606000000D+06  .400000000000D+01
22 15  4 21 20  0  0.0  .342184212059D-03  .397903932026D-11  .000000000000D+00
     .820000000000D+02 -.269062500000D+02  .549594321381D-08  .131074593022D+01
    -.139325857162D-05  .781585765071D-02  .848248600960D-05  .515369015694D+04
     .244800000000D+06 -.160187482834D-06 -.277659515165D+00  .111758708954D-07
     .923256437314D+00  .196531250000D+03 -.205758366356D+01 -.854857036798D-08
    -.489306095849D-09  .100000000000D+01  .184100000000D+04  .000000000000D+00
     .340000000000D+01  .000000000000D+00 -.176951289177D-07  .820000000000D+02
     .237606000000D+06  .400000000000D+01
23 15  4 21 20  0  0.0 -.103403814137D-03 -.250111042988D-11  .000000000000D+00
     .420000000000D+02  .992187500000D+02  .457733352146D-08 -.935057281049D+00
     .517442822456D-05  .100292284042D-01  .106915831566D-04  .515363564491D+04
     .244800000000D+06  .221654772758D-06  .791947997276D+00 -.111758708954D-07
     .948989204364D+00  .162625000000D+03 -.269701700755D+01 -.806819321549D-08
     .935753263594D-10  .100000000000D+01  .184100000000D+04  .000000000000D+00
     .240000000000D+01  .000000000000D+00 -.200234353542D-07  .420000000000D+02
     .237606000000D+06  .400000000000D+01
24 15  4 21 20  0  0.0 -.470322556794D-04 -.682121026330D-12  .000000000000D+00
     .430000000000D+02  .573125000000D+02  .503128100162D-08 -.168264313167D+01
     .290386378765D-05  .321205018554D-02  .227615237236D-05  .515367806816D+04
     .244800000000D+06  .614672899246D-07  .181923578542D+01  .372529029846D-08
     .953512043821D+00  .331562500000D+03  .354290085604D+00 -.857357140938D-08
     .227152318949D-09  .100000000000D+01  .184100000000D+04  .000000000000D+00
     .240000000000D+01  .000000000000D+00  .232830643654D-08  .430000000000D+02
     .237606000000D+06  .400000000000D+01
25 15  4 21 20  0  0.0 -.218772329390D-04 -.352429196937D-11  .000000000000D+00
     .123000000000D+03 -.107406250000D+03  .416195907659D-08  .261569075973D+01
    -.571087002754D-05  .453396199737D-02  .615976750851D-05  .515369587898D+04
     .244800000000D+06 -.521540641785D-07  .288156570466D+01 -.651925802231D-07
     .978331753959D+00  .268906250000D+03  .695703506295D+00 -.791997275580D-08
    -.331442377334D-09  .100000000000D+01  .184100000000D+04  .000000000000D+00
     .340000000000D+01  .000000000000D+00  .558793544769D-08  .123000000000D+03
     .237606000000D+06  .400000000000D+01
26 15  4 21 20  0  0.0  .211610458791D-04  .636646291241D-11  .000000000000D+00
     .670000000000D+02 -.115687500000D+03  .471162482951D-08  .825324923833D+00
    -.576116144657D-05  .232228310779D-03  .592321157455D-05  .515356083298D+04
     .244800000000D+06  .316649675369D-07  .287961189857D+01  .104308128357D-06
     .960450734491D+00  .265312500000D+03  .110898332037D+01 -.835570519152D-08
    -.337156901081D-09  .100000000000D+01  .184100000000D+04  .000000000000D+00
     .240000000000D+01  .000000000000D+00  .745058059692D-08  .670000000000D+02
     .237606000000D+06  .400000000000D+01
27 15  4 21 20  0  0.0  .666081905365D-04  .261479726760D-11  .000000000000D+00
     .109000000000D+03 -.454375000000D+02  .419446043040D-08  .357339864571D+00
    -.239908695221D-05  .234725070186D-02  .116080045700D-04  .515369396782D+04
     .244800000000D+06  .745058059692D-08 -.235777758407D+01  .335276126862D-07
     .967000884360D+00  .153468750000D+03  .170321300920D+00 -.783675500373D-08
     .214294640518D-09  .100000000000D+01  .184100000000D+04  .000000000000D+00
     .340000000000D+01  .000000000000D+00  .139698386192D-08  .109000000000D+03
     .237606000000D+06  .400000000000D+01
29 15  4 21 20  0  0.0  .605726148933D-03  .238742359215D-11  .000000000000D+00
     .870000000000D+02 -.179687500000D+02  .400552398901D-08  .296873191999D+01
    -.104494392872D-05  .135584175587D-02  .115167349577D-04  .515377802467D+04
     .244800000000D+06 -.130385160446D-07 -.230090242175D+01 -.279396772385D-07
     .972913826612D+00  .164218750000D+03 -.668395553906D+00 -.765817613663D-08
     .245010205659D-09  .100000000000D+01  .184100000000D+04  .000000000000D+00
     .240000000000D+01  .000000000000D+00 -.977888703346D-08  .870000000000D+02
     .237606000000D+06  .400000000000D+01
30 15  4 21 20  0  0.0 -.688736326993D-04  .420641299570D-11  .000000000000D+00
     .220000000000D+02  .530625000000D+02  .505235330794D-08 -.230224825518D+01
     .279210507870D-05  .126570498105D-02  .237300992012D-05  .515374829483D+04
     .244800000000D+06 -.782310962677D-07  .190937626388D+01 -.260770320892D-07
     .956038029359D+00  .335125000000D+03  .284900722957D+01 -.855857078454D-08
     .173935816553D-09  .100000000000D+01  .184100000000D+04  .000000000000D+00
     .240000000000D+01  .000000000000D+00  .325962901115D-08  .220000000000D+02
     .237606000000D+06  .400000000000D+01
31 15  4 21 20  0  0.0  .317992176861D-03 -.102318153949D-11  .000000000000D+00
     .590000000000D+02  .539687500000D+02  .457411910185D-08 -.262849340392D+01
     .294670462608D-05  .813730340451D-02  .195577740669D-05  .515376817703D+04
     .244800000000D+06 -.856816768646D-07  .186712046326D+01  .521540641785D-07
     .975186951148D+00  .352562500000D+03 -.520355418435D+00 -.825177229087D-08
     .194293807403D-09  .100000000000D+01  .184100000000D+04  .000000000000D+00
     .240000000000D+01  .000000000000D+00 -.135041773319D-07  .590000000000D+02
     .237606000000D+06  .400000000000D+01
32 15  4 21 20  0  0.0 -.170297455043D-03  .954969436862D-11  .000000000000D+00
     .500000000000D+02 -.169375000000D+02  .477984195675D-08 -.198384850204D+01
    -.974163413048D-06  .112546706805D-01  .929273664951D-05  .515378518295D+04
     .244800000000D+06 -.316649675369D-07 -.177696638990D+00 -.171363353729D-06
     .947391095099D+00  .193687500000D+03  .371621890515D-01 -.807247910830D-08
    -.351443210449D-09  .100000000000D+01  .184100000000D+04  .000000000000D+00
     .240000000000D+01  .000000000000D+00 -.372529029846D-08  .500000000000D+02
     .237606000000D+06  .400000000000D+01
27 15  4 21 19 59 44.0  .666086561978D-04  .261479726760D-11  .000000000000D+00
     .500000000000D+01 -.454375000000D+02  .419446043040D-08  .355004972708D+00
    -.239908695221D-05  .234724848997D-02  .116080045700D-04  .515369396973D+04
     .244784000000D+06  .745058059692D-08 -.235777745826D+01  .335276126862D-07
     .967000877045D+00  .153468750000D+03  .170322471255D+00 -.783675500373D-08
     .214294640518D-09  .100000000000D+01  .184100000000D+04  .000000000000D+00
     .240000000000D+01  .000000000000D+00  .139698386192D-08  .500000000000D+01
     .239136000000D+06  .400000000000D+01
25 15  4 21 19 59 44.0 -.218776986003D-04 -.352429196937D-11  .000000000000D+00
     .120000000000D+02 -.107406250000D+03  .416195907659D-08  .261335612388D+01
    -.571087002754D-05  .453395314980D-02  .615976750851D-05  .515369589424D+04
     .244784000000D+06 -.521540641785D-07  .288156583486D+01 -.651925802231D-07
     .978331764199D+00  .268906250000D+03  .695704322603D+00 -.791997275580D-08
    -.331799535068D-09  .100000000000D+01  .184100000000D+04  .000000000000D+00
     .240000000000D+01  .000000000000D+00  .558793544769D-08  .120000000000D+02
     .242166000000D+06  .400000000000D+01
20 15  4 21 19 59 44.0  .312529969960D-03  .375166564481D-11  .000000000000D+00
     .900000000000D+01 -.355625000000D+02  .543308345259D-08  .559045100232D+00
    -.180490314960D-05  .568307354115D-02  .749342143536D-05  .515578895187D+04
     .244784000000D+06 -.949949026108D-07 -.331384567200D+00 -.428408384323D-07
     .926590628036D+00  .218000000000D+03  .122004253843D+01 -.854392731744D-08
    -.449304429619D-09  .100000000000D+01  .184100000000D+04  .000000000000D+00
     .240000000000D+01  .000000000000D+00 -.838190317154D-08  .900000000000D+01
     .244416000000D+06  .400000000000D+01
29 15  4 21 19 59 44.0  .605736393481D-03  .250111042988D-11  .000000000000D+00
     .280000000000D+02 -.179687500000D+02  .400552398901D-08  .296639762939D+01
    -.104494392872D-05  .135584000964D-02  .115167349577D-04  .515377803612D+04
     .244784000000D+06 -.130385160446D-07 -.230090229594D+01 -.279396772385D-07
     .972913813446D+00  .164218750000D+03 -.668394908759D+00 -.765817613663D-08
     .245010205659D-09  .100000000000D+01  .184100000000D+04  .000000000000D+00
     .240000000000D+01  .000000000000D+00 -.977888703346D-08  .280000000000D+02
     .244596000000D+06  .400000000000D+01
